start=new Date('2022-10-22T00:00:00.000Z').valueOf();
sats=[{"REV_AT_EPOCH":"130","CENTER_NAME":"EARTH","TLE_LINE2":"2 53715  53.2164  41.5649 0001507  30.1432 313.9177 15.63053948  1308","MEAN_MOTION_DOT":"-0.01169375","PERIAPSIS":"377.825","SEMIMAJOR_AXIS":"6756.978","MEAN_MOTION":"15.63053948","TIME_SYSTEM":"UTC","COUNTRY_CODE":"US","LAUNCH_DATE":"2022-09-05","OBJECT_ID":"2022-107R","NORAD_CAT_ID":"53715","ELEMENT_SET_NO":"999","ECCENTRICITY":"0.00015070","SITE":"AFETR","INCLINATION":"53.2164","RA_OF_ASC_NODE":"41.5649","OBJECT_TYPE":"PAYLOAD","GP_ID":"215845640","REF_FRAME":"TEME","MEAN_MOTION_DDOT":"0.0000000000000","CLASSIFICATION_TYPE":"U","EPOCH":"2022-10-21T22:00:00.999936","FILE":"3628413","TLE_LINE1":"1 53715U 22107R   22294.91667824 -.01169375  00000-0 -13989-1 0  9990","MEAN_ANOMALY":"313.9177","BSTAR":"-0.01398900000000","OBJECT_NAME":"STARLINK-4686","ARG_OF_PERICENTER":"30.1432","DECAY_DATE":null,"APOAPSIS":"379.862","RCS_SIZE":"LARGE","EPHEMERIS_TYPE":"0","MEAN_ELEMENT_THEORY":"SGP4","PERIOD":"92.127"},{"GP_ID":"215846619","OBJECT_TYPE":"PAYLOAD","RA_OF_ASC_NODE":"41.5623","REF_FRAME":"TEME","MEAN_MOTION_DDOT":"0.0000000000000","EPOCH":"2022-10-21T22:00:00.999936","CLASSIFICATION_TYPE":"U","FILE":"3628413","BSTAR":"-0.01414300000000","MEAN_ANOMALY":"302.3915","TLE_LINE1":"1 53716U 22107S   22294.91667824 -.01183304  00000-0 -14143-1 0  9992","ARG_OF_PERICENTER":"42.9619","OBJECT_NAME":"STARLINK-4699","RCS_SIZE":"LARGE","EPHEMERIS_TYPE":"0","DECAY_DATE":null,"APOAPSIS":"379.591","PERIOD":"92.124","MEAN_ELEMENT_THEORY":"SGP4","REV_AT_EPOCH":"130","TLE_LINE2":"2 53716  53.2165  41.5623 0001346  42.9619 302.3915 15.63110254  1307","CENTER_NAME":"EARTH","MEAN_MOTION_DOT":"-0.01183304","TIME_SYSTEM":"UTC","MEAN_MOTION":"15.63110254","PERIAPSIS":"377.772","SEMIMAJOR_AXIS":"6756.816","OBJECT_ID":"2022-107S","COUNTRY_CODE":"US","LAUNCH_DATE":"2022-09-05","ELEMENT_SET_NO":"999","NORAD_CAT_ID":"53716","SITE":"AFETR","ECCENTRICITY":"0.00013460","INCLINATION":"53.2165"},{"MEAN_ELEMENT_THEORY":"SGP4","PERIOD":"88.538","DECAY_DATE":null,"APOAPSIS":"208.570","EPHEMERIS_TYPE":"0","RCS_SIZE":"LARGE","ARG_OF_PERICENTER":"0.9014","OBJECT_NAME":"STARLINK-4702","TLE_LINE1":"1 53717U 22107T   22294.86361404  .01785019  11997-4  52328-3 0  9991","MEAN_ANOMALY":"101.1240","BSTAR":"0.00052328000000","FILE":"3628394","MEAN_MOTION_DDOT":"0.0000119970000","CLASSIFICATION_TYPE":"U","EPOCH":"2022-10-21T20:43:36.253056","REF_FRAME":"TEME","OBJECT_TYPE":"PAYLOAD","RA_OF_ASC_NODE":"33.5256","GP_ID":"215820956","INCLINATION":"53.2007","NORAD_CAT_ID":"53717","ELEMENT_SET_NO":"999","SITE":"AFETR","ECCENTRICITY":"0.00097240","COUNTRY_CODE":"US","LAUNCH_DATE":"2022-09-05","OBJECT_ID":"2022-107T","MEAN_MOTION":"16.26423393","PERIAPSIS":"195.772","SEMIMAJOR_AXIS":"6580.306","TIME_SYSTEM":"UTC","MEAN_MOTION_DOT":"0.01785019","CENTER_NAME":"EARTH","TLE_LINE2":"2 53717  53.2007  33.5256 0009724   0.9014 101.1240 16.26423393  7579","REV_AT_EPOCH":"757"},{"PERIAPSIS":"377.652","SEMIMAJOR_AXIS":"6756.688","MEAN_MOTION":"15.63154798","TIME_SYSTEM":"UTC","MEAN_MOTION_DOT":"-0.01183519","CENTER_NAME":"EARTH","TLE_LINE2":"2 53718  53.2165  41.5597 0001333  43.7120 302.9011 15.63154798  1305","REV_AT_EPOCH":"130","INCLINATION":"53.2165","ELEMENT_SET_NO":"999","NORAD_CAT_ID":"53718","ECCENTRICITY":"0.00013330","SITE":"AFETR","COUNTRY_CODE":"US","LAUNCH_DATE":"2022-09-05","OBJECT_ID":"2022-107U","FILE":"3628413","MEAN_MOTION_DDOT":"0.0000000000000","EPOCH":"2022-10-21T22:00:00.999936","CLASSIFICATION_TYPE":"U","REF_FRAME":"TEME","OBJECT_TYPE":"PAYLOAD","RA_OF_ASC_NODE":"41.5597","GP_ID":"215846222","MEAN_ELEMENT_THEORY":"SGP4","PERIOD":"92.121","APOAPSIS":"379.453","DECAY_DATE":null,"EPHEMERIS_TYPE":"0","RCS_SIZE":"LARGE","ARG_OF_PERICENTER":"43.7120","OBJECT_NAME":"STARLINK-4695","TLE_LINE1":"1 53718U 22107U   22294.91667824 -.01183519  00000-0 -14121-1 0  9998","MEAN_ANOMALY":"302.9011","BSTAR":"-0.01412100000000"},{"ARG_OF_PERICENTER":"7.1958","OBJECT_NAME":"STARLINK-4644","MEAN_ANOMALY":"40.9846","TLE_LINE1":"1 53719U 22107V   22294.91667824 -.00090963  00000-0 -64898-3 0  9996","BSTAR":"-0.00064898000000","MEAN_ELEMENT_THEORY":"SGP4","PERIOD":"91.530","APOAPSIS":"351.950","DECAY_DATE":null,"RCS_SIZE":"LARGE","EPHEMERIS_TYPE":"0","REF_FRAME":"TEME","RA_OF_ASC_NODE":"38.4793","OBJECT_TYPE":"PAYLOAD","GP_ID":"215819014","FILE":"3628256","CLASSIFICATION_TYPE":"U","EPOCH":"2022-10-21T22:00:00.999936","MEAN_MOTION_DDOT":"0.0000000000000","LAUNCH_DATE":"2022-09-05","COUNTRY_CODE":"US","OBJECT_ID":"2022-107V","INCLINATION":"53.2167","ECCENTRICITY":"0.00034760","SITE":"AFETR","NORAD_CAT_ID":"53719","ELEMENT_SET_NO":"999","CENTER_NAME":"EARTH","TLE_LINE2":"2 53719  53.2167  38.4793 0003476   7.1958  40.9846 15.73252101  7516","REV_AT_EPOCH":"751","SEMIMAJOR_AXIS":"6727.747","PERIAPSIS":"347.273","MEAN_MOTION":"15.73252101","TIME_SYSTEM":"UTC","MEAN_MOTION_DOT":"-0.00090963"},{"OBJECT_ID":"2022-107W","LAUNCH_DATE":"2022-09-05","COUNTRY_CODE":"US","SITE":"AFETR","ECCENTRICITY":"0.00013840","NORAD_CAT_ID":"53720","ELEMENT_SET_NO":"999","INCLINATION":"53.2165","REV_AT_EPOCH":"130","TLE_LINE2":"2 53720  53.2165  41.5676 0001384  40.6829 302.1202 15.63023735  1304","CENTER_NAME":"EARTH","MEAN_MOTION_DOT":"-0.01188096","TIME_SYSTEM":"UTC","PERIAPSIS":"377.995","MEAN_MOTION":"15.63023735","SEMIMAJOR_AXIS":"6757.065","BSTAR":"-0.01425500000000","MEAN_ANOMALY":"302.1202","TLE_LINE1":"1 53720U 22107W   22294.91667824 -.01188096  00000-0 -14255-1 0  9994","ARG_OF_PERICENTER":"40.6829","OBJECT_NAME":"STARLINK-4642","RCS_SIZE":"LARGE","EPHEMERIS_TYPE":"0","DECAY_DATE":null,"APOAPSIS":"379.866","PERIOD":"92.129","MEAN_ELEMENT_THEORY":"SGP4","GP_ID":"215846385","RA_OF_ASC_NODE":"41.5676","OBJECT_TYPE":"PAYLOAD","REF_FRAME":"TEME","EPOCH":"2022-10-21T22:00:00.999936","CLASSIFICATION_TYPE":"U","MEAN_MOTION_DDOT":"0.0000000000000","FILE":"3628413"},{"FILE":"3628413","MEAN_MOTION_DDOT":"0.0000000000000","EPOCH":"2022-10-21T22:00:00.999936","CLASSIFICATION_TYPE":"U","REF_FRAME":"TEME","RA_OF_ASC_NODE":"41.5784","OBJECT_TYPE":"PAYLOAD","GP_ID":"215845478","MEAN_ELEMENT_THEORY":"SGP4","PERIOD":"92.139","DECAY_DATE":null,"APOAPSIS":"380.509","RCS_SIZE":"LARGE","EPHEMERIS_TYPE":"0","ARG_OF_PERICENTER":"29.7179","OBJECT_NAME":"STARLINK-4707","MEAN_ANOMALY":"307.9139","TLE_LINE1":"1 53721U 22107X   22294.91667824 -.01155986  00000-0 -13920-1 0  9995","BSTAR":"-0.01392000000000","SEMIMAJOR_AXIS":"6757.550","PERIAPSIS":"378.322","MEAN_MOTION":"15.62855560","TIME_SYSTEM":"UTC","MEAN_MOTION_DOT":"-0.01155986","CENTER_NAME":"EARTH","TLE_LINE2":"2 53721  53.2165  41.5784 0001618  29.7179 307.9139 15.62855560  1301","REV_AT_EPOCH":"130","INCLINATION":"53.2165","ELEMENT_SET_NO":"999","NORAD_CAT_ID":"53721","SITE":"AFETR","ECCENTRICITY":"0.00016180","COUNTRY_CODE":"US","LAUNCH_DATE":"2022-09-05","OBJECT_ID":"2022-107X"},{"OBJECT_NAME":"STARLINK-4700","ARG_OF_PERICENTER":"32.8436","MEAN_ANOMALY":"307.3366","TLE_LINE1":"1 53722U 22107Y   22294.91667824 -.01097717  00000-0 -13125-1 0  9990","BSTAR":"-0.01312500000000","MEAN_ELEMENT_THEORY":"SGP4","PERIOD":"92.136","APOAPSIS":"380.371","DECAY_DATE":null,"EPHEMERIS_TYPE":"0","RCS_SIZE":"LARGE","REF_FRAME":"TEME","RA_OF_ASC_NODE":"41.5731","OBJECT_TYPE":"PAYLOAD","GP_ID":"215846457","FILE":"3628413","CLASSIFICATION_TYPE":"U","EPOCH":"2022-10-21T22:00:00.999936","MEAN_MOTION_DDOT":"0.0000000000000","LAUNCH_DATE":"2022-09-05","COUNTRY_CODE":"US","OBJECT_ID":"2022-107Y","INCLINATION":"53.2165","SITE":"AFETR","ECCENTRICITY":"0.00016080","NORAD_CAT_ID":"53722","ELEMENT_SET_NO":"999","CENTER_NAME":"EARTH","TLE_LINE2":"2 53722  53.2165  41.5731 0001608  32.8436 307.3366 15.62900816  1305","REV_AT_EPOCH":"130","PERIAPSIS":"378.198","SEMIMAJOR_AXIS":"6757.420","MEAN_MOTION":"15.62900816","TIME_SYSTEM":"UTC","MEAN_MOTION_DOT":"-0.01097717"},{"OBJECT_TYPE":"PAYLOAD","RA_OF_ASC_NODE":"41.5836","GP_ID":"215845641","REF_FRAME":"TEME","MEAN_MOTION_DDOT":"0.0000000000000","CLASSIFICATION_TYPE":"U","EPOCH":"2022-10-21T22:00:00.999936","FILE":"3628413","MEAN_ANOMALY":"291.5054","TLE_LINE1":"1 53723U 22107Z   22294.91667824 -.01147716  00000-0 -13864-1 0  9996","BSTAR":"-0.01386400000000","ARG_OF_PERICENTER":"43.5373","OBJECT_NAME":"STARLINK-4705","DECAY_DATE":null,"APOAPSIS":"380.650","EPHEMERIS_TYPE":"0","RCS_SIZE":"LARGE","MEAN_ELEMENT_THEORY":"SGP4","PERIOD":"92.145","REV_AT_EPOCH":"130","CENTER_NAME":"EARTH","TLE_LINE2":"2 53723  53.2164  41.5836 0001413  43.5373 291.5054 15.62758384  1303","MEAN_MOTION_DOT":"-0.01147716","SEMIMAJOR_AXIS":"6757.830","PERIAPSIS":"378.740","MEAN_MOTION":"15.62758384","TIME_SYSTEM":"UTC","COUNTRY_CODE":"US","LAUNCH_DATE":"2022-09-05","OBJECT_ID":"2022-107Z","ELEMENT_SET_NO":"999","NORAD_CAT_ID":"53723","SITE":"AFETR","ECCENTRICITY":"0.00014130","INCLINATION":"53.2164"},{"OBJECT_ID":"2022-107AA","LAUNCH_DATE":"2022-09-05","COUNTRY_CODE":"US","INCLINATION":"53.2166","SITE":"AFETR","ECCENTRICITY":"0.00015190","NORAD_CAT_ID":"53724","ELEMENT_SET_NO":"999","TLE_LINE2":"2 53724  53.2166  41.5760 0001519  30.4595 308.3710 15.62904159  1309","CENTER_NAME":"EARTH","REV_AT_EPOCH":"130","TIME_SYSTEM":"UTC","PERIAPSIS":"378.249","SEMIMAJOR_AXIS":"6757.410","MEAN_MOTION":"15.62904159","MEAN_MOTION_DOT":"-0.01167651","OBJECT_NAME":"STARLINK-4663","ARG_OF_PERICENTER":"30.4595","BSTAR":"-0.01404900000000","TLE_LINE1":"1 53724U 22107AA  22294.91667824 -.01167651  00000-0 -14049-1 0  9993","MEAN_ANOMALY":"308.3710","PERIOD":"92.136","MEAN_ELEMENT_THEORY":"SGP4","EPHEMERIS_TYPE":"0","RCS_SIZE":"LARGE","APOAPSIS":"380.302","DECAY_DATE":null,"REF_FRAME":"TEME","GP_ID":"215846620","RA_OF_ASC_NODE":"41.5760","OBJECT_TYPE":"PAYLOAD","FILE":"3628413","CLASSIFICATION_TYPE":"U","EPOCH":"2022-10-21T22:00:00.999936","MEAN_MOTION_DDOT":"0.0000000000000"}];
